STARLINK-32280          
1 60736U 24152S   24268.58334491 -.01570823  00000+0 -30864-1 0  9994
2 60736  53.1594 215.8308 0001106  80.0727 126.2206 15.49736222  5487
STARLINK-32289          
1 60737U 24152T   24268.56211152 -.00004363  00000+0 -70473-4 0  9994
2 60737  53.1596 216.1055 0001656  69.6260 290.4927 15.49291426  5518
STARLINK-32304          
1 60738U 24152U   24268.56175582 -.00000284  00000+0  29586-5 0  9998
2 60738  53.1603 216.1043 0001557  84.9821 275.1366 15.49313669  5520
STARLINK-32235          
1 60739U 24152V   24268.56141502  .00000711  00000+0  20842-4 0  9993
2 60739  53.1615 216.1035 0001237  77.5074 282.6074 15.49312654  5463
STARLINK-32315          
1 60740U 24152W   24268.56106572  .00000773  00000+0  21956-4 0  9998
2 60740  53.1621 216.0981 0001275 102.2203 257.8949 15.49317305  5411
2024-153A               
1 60745U 24153A   24268.77888010  .00015182  00000+0  93082-3 0  9999
2 60745  97.6176  26.1484 0016436 192.1588 167.9247 15.10133113  4019
2024-153B               
1 60746U 24153B   24268.83934379  .00021401  00000+0  12927-2 0  9996
2 60746  97.6175  26.2234 0016437 195.7194 164.3527 15.10598545  4023
2024-153C               
1 60747U 24153C   24268.77239255  .00021521  00000+0  12972-2 0  9994
2 60747  97.6172  26.1572 0017046 195.7888 164.2812 15.10666043  4016
2024-153D               
1 60748U 24153D   24268.77060814  .00023110  00000+0  13862-2 0  9993
2 60748  97.6205  26.1718 0016569 196.6858 163.3829 15.10834547  4016
2024-153E               
1 60749U 24153E   24268.76981385  .00023295  00000+0  13949-2 0  9998
2 60749  97.6171  26.1608 0015957 197.9529 162.1139 15.10903610  4015
2024-153F               
1 60750U 24153F   24268.76818579  .00022973  00000+0  13725-2 0  9998
2 60750  97.6137  26.1511 0016683 198.6178 161.4443 15.10977939  4012
2024-153G               
1 60751U 24153G   24268.76590778  .00116508  57565-5  97345-3 0  9990
2 60751  97.6417  28.0102 0161459 273.1658  85.1134 15.54843894  4126
2024-153H               
1 60752U 24153H   24242.34728060 -.00000069  00000+0  00000+0 0  9993
2 60752  97.3719   0.5652 0013970  33.0832  33.4934 15.22204973    28
STARLINK-11242 [DTC]    
1 60903U 24154A   24268.27578354 -.00005123  00000+0 -27328-4 0  9995
2 60903  53.1586 232.8598 0001210  90.5076 269.6083 15.76721639  5024
STARLINK-11256 [DTC]    
1 60904U 24154B   24268.20752642 -.00017266  00000+0 -10171-3 0  9991
2 60904  53.1594 233.1409 0002437  60.5874 299.5390 15.76720909  5015
STARLINK-11159 [DTC]    
1 60905U 24154C   24268.20264205  .00025914  00000+0  16156-3 0  9991
2 60905  53.1587 233.1094 0001049  88.3011 271.8130 15.76769061  5014
STARLINK-11264 [DTC]    
1 60906U 24154D   24268.32454462 -.00003680  00000+0 -18501-4 0  9996
2 60906  53.1592 232.4453 0001429  77.1624 282.9556 15.76718081  5033
STARLINK-11226 [DTC]    
1 60907U 24154E   24268.31966591  .00003781  00000+0  27086-4 0  9995
2 60907  53.1588 232.4121 0001711  78.6434 281.4779 15.76733630  5038
STARLINK-11229 [DTC]    
1 60908U 24154F   24268.37817445  .00000914  00000+0  95808-5 0  9998
2 60908  53.1597 232.0613 0001053 108.0678 252.0458 15.76727856  5040
STARLINK-11265 [DTC]    
1 60909U 24154G   24268.62684389  .00063304  00000+0  38808-3 0  9993
2 60909  53.1595 230.7657 0001385  73.7595 286.3578 15.76718168  5078
STARLINK-11250 [DTC]    
1 60910U 24154H   24268.30503254  .00004099  00000+0  29011-4 0  9994
2 60910  53.1592 232.3154 0001206  73.6852 286.4302 15.76741836  5034
STARLINK-11190 [DTC]    
1 60911U 24154J   24268.87063728  .00002489  00000+0  19206-4 0  9990
2 60911  53.1586 229.4351 0001128 129.0798 231.0323 15.76722983  5112
STARLINK-11225 [DTC]    
1 60912U 24154K   24268.61221196 -.00000891  00000+0 -14407-5 0  9994
2 60912  53.1597 230.6660 0001784  93.2938 266.8287 15.76723771  5074
STARLINK-11273 [DTC]    
1 60913U 24154L   24268.60733527  .00007218  00000+0  48030-4 0  9996
2 60913  53.1606 230.6326 0001096  89.8814 270.2333 15.76743257  5088
STARLINK-11248 [DTC]    
1 60914U 24154M   24268.60246895 -.00000998  00000+0 -20928-5 0  9991
2 60914  53.1604 230.5992 0001938  76.0638 284.0598 15.76721722  5070
STARLINK-11271 [DTC]    
1 60915U 24154N   24268.59758158  .00000772  00000+0  87065-5 0  9993
2 60915  53.1605 230.5659 0001005  85.5928 274.5208 15.76738031  5077
STARLINK-32371          
1 60916U 24154P   24268.58334491 -.00039819  00000+0 -71094-3 0  9992
2 60916  53.1591 232.1834 0001670  82.1862 158.3109 15.49331148  5047
STARLINK-32369          
1 60917U 24154Q   24268.58334491 -.01554835  00000+0 -34829-1 0  9997
2 60917  53.1590 232.1884 0001244  82.9770 155.0608 15.45972008  5001
STARLINK-32317          
1 60918U 24154R   24268.58334491 -.01557617  00000+0 -31699-1 0  9991
2 60918  53.1590 232.1805 0001059  95.5119 146.6905 15.48720599  5001
STARLINK-32367          
1 60919U 24154S   24268.58334491 -.00044047  00000+0 -78790-3 0  9994
2 60919  53.1589 232.1688 0001241  93.5720 154.6014 15.49325381  5010
STARLINK-32345          
1 60920U 24154T   24268.58334491 -.00053571  00000+0 -96064-3 0  9992
2 60920  53.1589 232.1732 0001732  88.2262 158.0198 15.49340037  5048
STARLINK-32356          
1 60921U 24154U   24268.58334491 -.00023661  00000+0 -41844-3 0  9996
2 60921  53.1588 232.1614 0001525  93.0089 158.9951 15.49322213  5051
STARLINK-32274          
1 60922U 24154V   24268.91667824 -.00016648  00000+0 -29166-3 0  9993
2 60922  53.1591 230.5708 0001457 101.6657 208.6431 15.49332123  5050
STARLINK-32373          
1 60923U 24154W   24268.58334491 -.00030174  00000+0 -53622-3 0  9992
2 60923  53.1589 232.1567 0001461  94.1679 159.7510 15.49326031  5048
STARLINK-11239 [DTC]    
1 60924U 24155A   24268.84387111  .00020491  00000+0  12896-3 0  9997
2 60924  53.1572  79.1282 0000562  87.6176 272.4909 15.76716381  5006
STARLINK-11245 [DTC]    
1 60925U 24155B   24268.77560474 -.00005916  00000+0 -32199-4 0  9991
2 60925  53.1555  79.4108 0001002  51.2781 308.8329 15.76710955  4883
STARLINK-11244 [DTC]    
1 60926U 24155C   24268.76583698 -.00006253  00000+0 -34273-4 0  9994
2 60926  53.1546  79.3444 0000802 343.2223  16.8771 15.76706541  5040
STARLINK-11243 [DTC]    
1 60927U 24155D   24268.77071821  .00006937  00000+0  46329-4 0  9998
2 60927  53.1559  79.3800 0000726  97.5117 262.5986 15.76735443  4890
STARLINK-11238 [DTC]    
1 60928U 24155E   24268.76095088  .00005945  00000+0  40312-4 0  9993
2 60928  53.1585  79.3109 0001787  77.4190 282.7031 15.76722247  5050
STARLINK-11240 [DTC]    
1 60929U 24155F   24267.93204682  .00005179  00000+0  35601-4 0  9998
2 60929  53.1568  83.3829 0000346  28.3378 331.7661 15.76736701  4872
STARLINK-11251 [DTC]    
1 60930U 24155G   24268.75118259  .00039882  00000+0  24678-3 0  9994
2 60930  53.1576  79.2472 0001203 109.1700 250.9451 15.76705238  4837
STARLINK-11204 [DTC]    
1 60931U 24155H   24268.80968472  .00002031  00000+0  16403-4 0  9995
2 60931  53.1555  78.8957 0001133 135.4396 224.6716 15.76725313  5012
STARLINK-11246 [DTC]    
1 60932U 24155J   24268.74141714  .00001250  00000+0  11638-4 0  9998
2 60932  53.1639  79.1853 0000872 324.2154  35.8809 15.76714525  4831
STARLINK-11207 [DTC]    
1 60933U 24155K   24268.48298631  .00002764  00000+0  20878-4 0  9998
2 60933  53.1591  80.4149 0001326  87.8511 272.2662 15.76734534  4966
STARLINK-11237 [DTC]    
1 60934U 24155L   24267.90763383  .00003092  00000+0  22879-4 0  9994
2 60934  53.1571  83.2217 0001059  72.7483 287.3653 15.76729614  4809
STARLINK-11253 [DTC]    
1 60935U 24155M   24268.85393135 -.00191663  00000+0 -12350-2 0  9999
2 60935  53.1544  78.4517 0001359  12.5360 347.5694 15.75956580  5019
STARLINK-11241 [DTC]    
1 60936U 24155N   24268.84905459 -.00200968  00000+0 -12983-2 0  9998
2 60936  53.1565  78.4220 0000728  78.5905 281.5197 15.75928513  5010
STARLINK-32259          
1 60937U 24155P   24268.83334491 -.01340545  00000+0 -22090-1 0  9996
2 60937  53.1607  79.3839 0001277  90.6178 103.4584 15.54598239  5007
STARLINK-32262          
1 60938U 24155Q   24268.24336703  .00957248  47544-3  15528-2 0  9998
2 60938  53.1558  79.9248 0002576 259.1139 271.6992 16.02892645  4995
STARLINK-32258          
1 60939U 24155R   24268.58334491 -.01372850  00000+0 -22053-1 0  9993
2 60939  53.1608  80.6043 0001231 101.4882 124.6409 15.55356242  4956
STARLINK-32251          
1 60940U 24155S   24268.58334491 -.01375434  00000+0 -22098-1 0  9995
2 60940  53.1608  80.5926 0001225 104.2103 127.6678 15.55357584  4903
STARLINK-32224          
1 60941U 24155T   24268.58334491 -.01374598  00000+0 -22084-1 0  9991
2 60941  53.1608  80.5765 0001145 105.9320 133.6122 15.55357170  4952
STARLINK-32184          
1 60942U 24155U   24268.58334491 -.01372920  00000+0 -22054-1 0  9996
2 60942  53.1608  80.5965 0001255 101.4011 128.5609 15.55356333  4958
STARLINK-32288          
1 60943U 24155V   24268.58334491 -.01372578  00000+0 -22049-1 0  9990
2 60943  53.1609  80.5844 0001127 101.3934 134.3182 15.55356078  4954
STARLINK-32276          
1 60944U 24155W   24268.58334491 -.01372539  00000+0 -22049-1 0  9998
2 60944  53.1608  80.5805 0001033 102.7182 134.9099 15.55356016  5054
YAOGAN-43 02A           
1 60945U 24156A   24268.84745922  .00040723  00000+0  15596-2 0  9998
2 60945  34.9970 202.4908 0004548 108.1551 251.9660 15.25530526  3337
YAOGAN-43 02B           
1 60946U 24156B   24268.84871189  .00033332  00000+0  12986-2 0  9992
2 60946  34.9948 202.4990 0007694 107.5303 252.6253 15.24984385  3282
YAOGAN-43 02C           
1 60947U 24156C   24268.12640472  .00001707  00000+0  68643-4 0  9997
2 60947  34.9975 207.0280 0005997 103.6785 256.4598 15.24783928  3173
